#aV2024  6 15  0  0  0.00000000     288 DD+AD WGS84 FIT  NGA
## 2318 518400.00000000   300.00000000 60476 0.0000000000000
+   31     2  3  4  5  6  7  8  9 10 11 12 13 14 15 16 17 18
+         19 20 21 22 23 24 25 26 27 28 29 30 31 32  0  0  0
+          0  0  0  0  0  0  0  0  0  0  0  0  0  0  0  0  0
+          0  0  0  0  0  0  0  0  0  0  0  0  0  0  0  0  0
+          0  0  0  0  0  0  0  0  0  0  0  0  0  0  0  0  0
++         2  2  2  2  2  2  2  2  2  2  2  2  2  2  2  2  2
++         2  2  2  2  2  2  2  2  2  2  2  2  2  2  0  0  0
++         0  0  0  0  0  0  0  0  0  0  0  0  0  0  0  0  0
++         0  0  0  0  0  0  0  0  0  0  0  0  0  0  0  0  0
++         0  0  0  0  0  0  0  0  0  0  0  0  0  0  0  0  0
%c cc cc ccc ccc cccc cccc cccc cccc ccccc ccccc ccccc ccccc
%c cc cc ccc ccc cccc cccc cccc cccc ccccc ccccc ccccc ccccc
%f  0.0000000  0.000000000  0.00000000000  0.000000000000000
%f  0.0000000  0.000000000  0.00000000000  0.000000000000000
%i    0    0    0    0      0      0      0      0         0
%i    0    0    0    0      0      0      0      0         0
/*      NGA, ST. LOUIS,MO.                                  
/*   EPHEMERIS COMPUTED FROM 2 DAYS OF DATA                 
/*   EPOCHA v9 SMOOTHER                                     
/*   G2296 IERS2010 SATIGS SATAPC                           
*  2024  6 15  5 50  0.00000000
P  2 -13386.078672 -13318.081291 -18323.976910   -417.449007                    
V  2  24169.475142   -156.685932 -16814.224510      0.070640                    
P  3 -12743.755568 -22837.572274   4841.292122    414.134442                    
V  3   -596.917418  -6572.272489 -31419.698473      0.178769                    
P  4  -6766.645840 -14691.584604  21059.853011    383.489636                    
V  4  17642.501469 -20075.223925  -8473.927954      0.080961                    
P  5   3918.166202  24236.466288   9841.110543   -176.369360                    
V  5  -7508.037429 -10588.589448  28625.003051     -0.013359                    
P  6 -21892.980523   5986.807776  13944.961687    217.723477                    
V  6 -17113.084942  -3966.580566 -25166.177696     -0.212270                    
P  7 -25751.900344  -6500.394735   4186.111728    -92.710814                    
V  7   4931.794834  -2019.272611  30629.852052      0.103405                    
P  8   1739.342824 -21346.995467 -15537.242198    230.379834                    
V  8  13437.280977 -14635.381382  22185.890835      0.181333                    
P  9 -16093.827555  -2822.552578  20866.665374    235.307505                    
V  9  15148.110914 -21979.532856   8624.545575      0.145955                    
P 10  13872.672302  -4623.406133 -21971.843092    -43.217836                    
V 10  10786.084202  26192.080814    974.299200     -0.082423                    
P 11  -9624.894270  13032.513594  21059.422402   -685.730632                    
V 11 -26112.744032  -5531.527772  -8574.346845     -0.080575                    
P 12  10083.397354  24421.438295   2682.811635   -514.212350                    
V 12  -1408.010790   4412.172510 -31519.683278     -0.032144                    
P 13 -11418.906784  21388.250817 -10770.647550    658.017080                    
V 13 -11218.075565   7730.210226  28014.159325      0.026489                    
P 14 -16095.768581    553.991559 -21111.999327    425.761707                    
V 14  -9106.981286 -25334.326464   6055.244835      0.091108                    
P 15   1248.768583  21666.436474 -15685.425327    170.308791                    
V 15 -11418.647588  15599.493373  21517.352578      0.041835                    
P 16   1513.646398 -23235.545213  12016.947275   -263.893802                    
V 16   7365.747081  14407.932172  26647.790783      0.105015                    
P 17 -20673.720844  10126.624108 -12970.399409    694.325718                    
V 17   9672.896132 -14227.059170 -25544.243400     -0.055876                    
P 18  25884.215774   5835.089403   2707.990160   -625.086169                    
V 18  -3694.287562   1659.668969  31676.490231     -0.048922                    
P 19 -20370.575473  15826.868684  -5532.218119    496.631893                    
V 19   2708.414464  -6919.536021 -31127.254483      0.053807                    
P 20  -2441.213248  19675.472165  17806.871141    373.826191                    
V 20 -13427.111715 -18067.713977  18039.467469     -0.003844                    
P 21  -8294.296100 -14590.964701 -20379.144628    115.364163                    
V 21  26622.044303    617.731646 -10042.657228     -0.024628                    
P 22 -12378.014700   9682.779140 -21035.111967    -27.464541                    
V 22  -8649.071204 -26261.296602  -6579.537663     -0.049200                    
P 23  17236.256761   8149.136748 -18554.972540    250.657317                    
V 23   8520.924642  21913.928984  17322.073505      0.091619                    
P 24  11102.224425  14888.970549 -19548.256893   -477.783585                    
V 24 -23929.248786    382.816141 -13181.513205     -0.025366                    
P 25  16186.947768  18069.557670  10776.410855    497.357832                    
V 25   3189.487263  13996.668196 -27150.386507      0.005318                    
P 26   9809.888857 -13855.402412  20194.546383    136.732577                    
V 26  13060.269892  22731.888137   9550.301244     -0.062589                    
P 27  11440.624361 -22830.703905  -6735.148705    -28.253947                    
V 27   7348.660593  -4808.371728  30488.425601     -0.013329                    
P 28  23232.549107  -5724.725279  11518.814279   -289.469631                    
V 28  14324.992602   3862.971155 -26948.898248     -0.167748                    
P 29  13744.891790   6833.812864  21634.627978   -594.150623                    
V 29 -18180.801669  20700.826439   4882.243841      0.017159                    
P 30 -25743.141702   1547.453494  -6760.139755   -374.024591                    
V 30  -8231.533906  -4396.063746  29412.571312      0.061884                    
P 31  15024.644568 -11132.431627  18794.621518   -227.386746                    
V 31  23703.531484   5081.185937 -15373.709929      0.001934                    
P 32  19884.772312 -12748.404696 -11731.783207   -616.175359                    
V 32  -7196.232153  13738.774436 -26836.623953      0.011771                    
EOF
